[
    {
        "Altitude(m)": 604983.0528470494,
        "Argument of Periapsis(deg)": 0.0,
        "Eccentricity": 0.0,
        "Inclination(deg)": 60.0,
        "Latitude(deg)": -0.09254587807758302,
        "Longitude(deg)": 125.08391630048578,
        "Mean Anomaly(deg)": 180.0,
        "RAAN(deg)": 45.0,
        "Satellite Name": "Test1 209",
        "Satellite Number": 209,
        "Semi-Major Axis(m)": 6980739.136638005,
        "Time(s)": 0
    },
    {
        "Altitude(m)": 605055.3315968317,
        "Argument of Periapsis(deg)": 0.00010418945913296404,
        "Eccentricity": 0.0,
        "Inclination(deg)": 60.0,
        "Latitude(deg)": -0.632956048006972,
        "Longitude(deg)": 125.35204062025502,
        "Mean Anomaly(deg)": 180.62010614546185,
        "RAAN(deg)": 44.99957995086026,
        "Satellite Name": "Test1 209",
        "Satellite Number": 209,
        "Semi-Major Axis(m)": 6980739.136638005,
        "Time(s)": 10
    }
]